OBJECT_NAME,OBJECT_ID,EPOCH,MEAN_MOTION,ECCENTRICITY,INCLINATION,RA_OF_ASC_NODE,ARG_OF_PERICENTER,MEAN_ANOMALY,EPHEMERIS_TYPE,CLASSIFICATION_TYPE,NORAD_CAT_ID,ELEMENT_SET_NO,REV_AT_EPOCH,BSTAR,MEAN_MOTION_DOT,MEAN_MOTION_DDOT
IRIDIUM 100,2017-061B,2026-06-16T14:33:30.647808,14.34216955,.00021552,86.3967,25.4295,87.1013,273.0430,0,U,42956,999,45469,.13422008E-4,.57E-6,0
IRIDIUM 122,2017-061C,2026-06-16T13:47:50.719776,14.34217812,.00021601,86.3967,25.4429,83.6517,276.4925,0,U,42957,999,45469,.10301909E-4,.49E-6,0
IRIDIUM 129,2017-061D,2026-06-16T14:24:22.759488,14.34217397,.00022968,86.3965,25.4992,85.2709,274.8749,0,U,42958,999,45471,-.1796467E-4,-.31E-6,0
IRIDIUM 119,2017-061E,2026-06-16T13:38:42.714816,14.34217784,.00022217,86.3968,25.5084,84.0288,276.1161,0,U,42959,999,45472,.3034518E-5,.28E-6,0
IRIDIUM 107,2017-061F,2026-06-16T14:06:06.673536,14.34216761,.00019447,86.3969,25.5218,82.0681,278.0736,0,U,42960,999,45473,.45357312E-4,.147E-5,0
IRIDIUM 132,2017-061G,2026-06-16T14:15:14.739840,14.34217630,.00021636,86.3968,25.4986,85.0462,275.0981,0,U,42961,999,45473,.12036412E-4,.53E-6,0
IRIDIUM 136,2017-061H,2026-06-16T13:20:27.490272,14.34219312,.00021743,86.3969,25.5212,88.3523,271.7922,0,U,42962,999,45474,.60703728E-4,.19E-5,0
IRIDIUM 139,2017-061J,2026-06-16T13:29:34.682208,14.34217961,.00020762,86.3972,25.5805,87.9067,272.2366,0,U,42963,999,45475,.1191584E-4,.53E-6,0
IRIDIUM 125,2017-061K,2026-06-16T13:11:19.223520,14.34213986,.00022033,86.3972,25.6468,73.0131,287.1307,0,U,42964,999,45476,.39595572E-4,.131E-5,0
QZS-4 (MICHIBIKI-4),2017-062A,2026-06-16T08:29:46.528800,1.00250450,.07451754,40.1083,343.4922,271.7618,273.8478,0,U,42965,999,3179,0,-.348E-5,0
SES-11 (ECHOSTAR 105),2017-063A,2026-06-16T13:27:23.496768,1.00270643,.00026913,0.0168,337.4237,93.0584,291.2456,0,U,42967,999,3171,0,-.91E-6,0
SENTINEL-5P,2017-064A,2026-06-16T13:37:12.596160,14.19518841,.0000963,98.7925,109.7031,85.2387,274.8899,0,U,42969,999,44947,.35330212E-4,.3E-6,0
KOREASAT 5A,2017-067A,2026-06-16T14:15:37.961568,1.00271007,.00005795,0.0144,30.0717,64.6884,137.1621,0,U,42984,999,3152,0,-.36E-5,0
COSMOS 2523,2017-037E,2026-06-16T14:22:15.787776,14.95432700,.00651735,97.4981,180.7220,230.8854,128.6562,0,U,42986,999,46887,.16298195E-3,.182E-4,0
SKYSAT-C11,2017-068A,2026-06-16T09:57:33.079680,15.57859742,.00006529,97.4351,316.2117,85.8238,274.3092,0,U,42987,999,48312,.31054259E-3,.23062E-3,0
SKYSAT-C10,2017-068B,2026-06-16T09:06:28.218528,15.34627153,.00011147,97.4508,304.2182,96.2751,263.8619,0,U,42988,999,48223,.2290547E-3,.7605E-4,0
SKYSAT-C9,2017-068C,2026-06-16T07:55:28.710624,15.41543793,.00093885,97.4429,305.0950,135.6154,224.5847,0,U,42989,999,48262,.27153294E-3,.11332E-3,0
SKYSAT-C8,2017-068D,2026-06-16T10:00:44.395200,15.36963915,.00014659,97.4526,304.0531,95.7997,264.3415,0,U,42990,999,48219,.24534488E-3,.8787E-4,0
SKYSAT-C7,2017-068E,2026-06-16T08:17:45.593376,15.36912525,.00072034,97.4536,304.9700,108.9699,251.2326,0,U,42991,999,48224,.24899855E-3,.8911E-4,0
SKYSAT-C6,2017-068F,2026-06-16T14:59:58.721280,15.34202257,.00043922,97.4572,305.2249,139.0315,221.1258,0,U,42992,999,48223,.22931408E-3,.7513E-4,0
BEIDOU-3 M1,2017-069A,2026-06-16T01:25:09.439392,1.86230800,.00104164,56.6914,63.1220,325.8468,34.1241,0,U,43001,999,5858,0,-.5E-6,0
BEIDOU-3 M2,2017-069B,2026-06-15T23:56:56.499360,1.86230738,.0009202,56.6897,63.1605,351.0266,8.9945,0,U,43002,999,5857,0,-.5E-6,0
MOHAMMED VI-A,2017-070A,2026-06-16T14:25:46.069824,14.77068851,.00013814,97.9564,239.9403,71.6129,288.5231,0,U,43005,999,46389,.78231004E-4,.501E-5,0
FENGYUN 3D,2017-072A,2026-06-16T14:00:19.760256,14.19737855,.00025945,99.0121,141.9950,63.5618,296.5823,0,U,43010,999,44490,-.13967646E-3,-.342E-5,0
HEAD-1,2017-072B,2026-06-16T14:36:56.358432,14.28797743,.00103854,98.9540,186.1006,149.6794,210.4989,0,U,43011,999,44727,.11771506E-3,.25E-5,0
NOAA 20 (JPSS-1),2017-073A,2026-06-16T13:52:55.143264,14.19511638,.000029,98.7771,107.0465,92.0503,268.0706,0,U,43013,999,44438,.48098106E-4,.57E-6,0
MAKERSAT 0,2017-073D,2026-06-16T09:30:30.085920,15.32078089,.01051278,97.4625,49.9092,275.8487,83.0779,0,U,43016,999,46634,.40126732E-3,.14722E-3,0
RADFXSAT (FOX-1B),2017-073E,2026-06-16T14:42:14.035680,15.12711269,.0149639,97.4701,34.8391,331.2657,28.0388,0,U,43017,999,46530,.27762433E-3,.6326E-4,0
JILIN-1 04,2017-074A,2026-06-16T13:36:48.068064,15.42428657,.00041311,97.4865,277.1626,180.6307,179.4935,0,U,43022,999,47417,.24270577E-3,.10409E-3,0
JILIN-1 05,2017-074B,2026-06-16T14:22:58.899648,15.33868931,.00043168,97.4870,273.7451,216.5406,143.5543,0,U,43023,999,47391,.21553218E-3,.6981E-4,0
